{
    "links": {
        "self": "http://www.neowsapp.com/rest/v1/neo/3760216?api_key=iIulBulltgU6a56xZRHN4H3l9WmuAYTsLGpBGhQ2"
    },
    "id": "3760216",
    "neo_reference_id": "3760216",
    "name": "(2016 TP)",
    "designation": "2016 TP",
    "nasa_jpl_url": "http://ssd.jpl.nasa.gov/sbdb.cgi?sstr=3760216",
    "absolute_magnitude_h": 23.5,
    "estimated_diameter": {
        "kilometers": {
            "estimated_diameter_min": 0.0530340723,
            "estimated_diameter_max": 0.1185877909
        },
        "meters": {
            "estimated_diameter_min": 53.0340723319,
            "estimated_diameter_max": 118.5877908577
        },
        "miles": {
            "estimated_diameter_min": 0.0329538346,
            "estimated_diameter_max": 0.0736870142
        },
        "feet": {
            "estimated_diameter_min": 173.9963058693,
            "estimated_diameter_max": 389.0675677576
        }
    },
    "is_potentially_hazardous_asteroid": false,
    "close_approach_data": [
        {
            "close_approach_date": "2006-09-18",
            "close_approach_date_full": "2006-Sep-18 12:18",
            "epoch_date_close_approach": 1158581880000,
            "relative_velocity": {
                "kilometers_per_second": "19.8855085884",
                "kilometers_per_hour": "71587.8309184196",
                "miles_per_hour": "44481.8941615036"
            },
            "miss_distance": {
                "astronomical": "0.442757842",
                "lunar": "172.232800538",
                "kilometers": "66235630.08899654",
                "miles": "41156912.065930652"
            },
            "orbiting_body": "Earth"
        },
        {
            "close_approach_date": "2011-10-02",
            "close_approach_date_full": "2011-Oct-02 03:43",
            "epoch_date_close_approach": 1317526980000,
            "relative_velocity": {
                "kilometers_per_second": "13.5117027872",
                "kilometers_per_hour": "48642.1300337576",
                "miles_per_hour": "30224.3279645868"
            },
            "miss_distance": {
                "astronomical": "0.2164635667",
                "lunar": "84.2043274463",
                "kilometers": "32382488.510922929",
                "miles": "20121545.3122332602"
            },
            "orbiting_body": "Earth"
        },
        {
            "close_approach_date": "2016-10-19",
            "close_approach_date_full": "2016-Oct-19 03:38",
            "epoch_date_close_approach": 1476848280000,
            "relative_velocity": {
                "kilometers_per_second": "8.2658555323",
                "kilometers_per_hour": "29757.0799162991",
                "miles_per_hour": "18489.8922402137"
            },
            "miss_distance": {
                "astronomical": "0.079696715",
                "lunar": "31.002022135",
                "kilometers": "11922458.80999705",
                "miles": "7408272.37837729"
            },
            "orbiting_body": "Earth"
        },
        {
            "close_approach_date": "2137-09-18",
            "close_approach_date_full": "2137-Sep-18 14:09",
            "epoch_date_close_approach": 5292569340000,
            "relative_velocity": {
                "kilometers_per_second": "20.8601685207",
                "kilometers_per_hour": "75096.6066745888",
                "miles_per_hour": "46662.1109639966"
            },
            "miss_distance": {
                "astronomical": "0.4768158767",
                "lunar": "185.4813760363",
                "kilometers": "71330639.536502629",
                "miles": "44322804.1322451202"
            },
            "orbiting_body": "Earth"
        }
    ],
    "orbital_data": {
        "orbit_id": "12",
        "orbit_determination_date": "2020-09-12 06:50:42",
        "first_observation_date": "2016-10-02",
        "last_observation_date": "2016-10-29",
        "data_arc_in_days": 27,
        "observations_used": 65,
        "orbit_uncertainty": "7",
        "minimum_orbit_intersection": ".0774563",
        "jupiter_tisserand_invariant": "3.859",
        "epoch_osculation": "2459000.5",
        "eccentricity": ".4510245281168164",
        "semi_major_axis": "1.850118546053923",
        "inclination": "10.56150332808696",
        "ascending_node_longitude": "188.936968691372",
        "orbital_period": "919.1740646636564",
        "perihelion_distance": "1.015669701859782",
        "perihelion_argument": "223.7993137870393",
        "aphelion_distance": "2.684567390248064",
        "perihelion_time": "2458624.952737684317",
        "mean_anomaly": "147.0853232604177",
        "mean_motion": ".3916559592352413",
        "equinox": "J2000",
        "orbit_class": {
            "orbit_class_type": "APO",
            "orbit_class_description": "Near-Earth asteroid orbits which cross the Earth’s orbit similar to that of 1862 Apollo",
            "orbit_class_range": "a (semi-major axis) > 1.0 AU; q (perihelion) < 1.017 AU"
        }
    },
    "is_sentry_object": false
}